NORAD_CAT_ID,OBJECT_NAME,OBJECT_TYPE,EPOCH,MEAN_MOTION,ECCENTRICITY,INCLINATION,RA_OF_ASC_NODE,ARG_OF_PERICENTER,MEAN_ANOMALY,BSTAR,MEAN_MOTION_DOT,MEAN_MOTION_DDOT,TLE_LINE0,TLE_LINE1,TLE_LINE2,SEMIMAJOR_AXIS,PERIOD,APOGEE,PERIGEE,DECAYED
53851.0,STARLINK-4755,PAYLOAD,2023-07-03 06:18:17,15.08837612,0.0001086,53.2176,15.2026,90.7115,269.4001,4.8126e-05,4.78e-06,0.0,0 STARLINK-4755,1 53851U 22114AK  23184.26270445  .00000478  00000-0  48126-4 0  9994,2 53851  53.2176  15.2026 0001086  90.7115 269.4001 15.08837612 44429,6917.888,95.438,540.504,539.001,0.0
53851.0,STARLINK-4755,PAYLOAD,2023-07-03 19:01:22,15.08843408,0.0001158,53.2176,12.8238,89.6776,270.4349,5.7912e-05,6.34e-06,0.0,0 STARLINK-4755,1 53851U 22114AK  23184.79262058  .00000634  00000-0  57912-4 0  9990,2 53851  53.2176  12.8238 0001158  89.6776 270.4349 15.08843408 44503,6917.87,95.437,540.536,538.934,0.0
53851.0,STARLINK-4755,PAYLOAD,2023-07-04 22:02:55,15.08847738,0.0001159,53.218,7.7684,92.1646,267.9479,0.00010031,1.309e-05,0.0,0 STARLINK-4755,1 53851U 22114AK  23185.91869553  .00001309  00000-0  10031-3 0  9998,2 53851  53.2180   7.7684 0001159  92.1646 267.9479 15.08847738 44675,6917.857,95.437,540.524,538.92,0.0
53851.0,STARLINK-4755,PAYLOAD,2023-07-05 07:35:14,15.08836577,0.0001178,53.2181,5.9878,82.3662,277.7464,4.3355e-05,4.02e-06,0.0,0 STARLINK-4755,1 53851U 22114AK  23186.31614414  .00000402  00000-0  43355-4 0  9996,2 53851  53.2181   5.9878 0001178  82.3662 277.7464 15.08836577 44730,6917.891,95.438,540.571,538.941,0.0
53851.0,STARLINK-4755,PAYLOAD,2023-07-06 10:36:48,15.08841304,9.9e-05,53.2173,0.9299,92.7759,267.3347,5.1382e-06,-2.06e-06,0.0,0 STARLINK-4755,1 53851U 22114AK  23187.44222409 -.00000206  00000-0  51382-5 0  9993,2 53851  53.2173   0.9299 0000990  92.7759 267.3347 15.08841304 44904,6917.876,95.437,540.426,539.057,0.0
53851.0,STARLINK-4755,PAYLOAD,2023-07-07 18:24:30,15.08840662,9.96e-05,53.2175,354.9836,93.4671,266.6435,0.00011583,1.556e-05,0.0,0 STARLINK-4755,1 53851U 22114AK  23188.76702294  .00001556  00000-0  11583-3 0  9999,2 53851  53.2175 354.9836 0000996  93.4671 266.6435 15.08840662 45101,6917.878,95.438,540.432,539.054,0.0
53851.0,STARLINK-4755,PAYLOAD,2023-07-09 03:47:37,15.08839593,9.28e-05,53.2175,348.7386,89.3698,270.74,4.9589e-05,5.02e-06,0.0,0 STARLINK-4755,1 53851U 22114AK  23190.15806715  .00000502  00000-0  49589-4 0  9996,2 53851  53.2175 348.7386 0000928  89.3698 270.7400 15.08839593 45312,6917.882,95.438,540.389,539.105,0.0
53851.0,STARLINK-4755,PAYLOAD,2023-07-10 09:59:56,15.08839367,9.98e-05,53.2175,343.0875,87.4349,272.6758,6.3267e-05,7.19e-06,0.0,0 STARLINK-4755,1 53851U 22114AK  23191.41662858  .00000719  00000-0  63267-4 0  9993,2 53851  53.2175 343.0875 0000998  87.4349 272.6758 15.08839367 45509,6917.882,95.438,540.438,539.057,0.0
53851.0,STARLINK-4755,PAYLOAD,2023-07-11 16:12:15,15.08845098,8.68e-05,53.2178,337.4379,87.9125,272.1967,0.00015147,2.124e-05,0.0,0 STARLINK-4755,1 53851U 22114AK  23192.67517988  .00002124  00000-0  15147-3 0  9990,2 53851  53.2178 337.4379 0000868  87.9125 272.1967 15.08845098 45696,6917.865,95.437,540.33,539.129,0.0
53851.0,STARLINK-4755,PAYLOAD,2023-07-12 09:41:30,15.08836558,0.000101,53.2185,334.1667,98.6833,261.4273,3.3518e-05,2.46e-06,0.0,0 STARLINK-4755,1 53851U 22114AK  23193.40382729  .00000246  00000-0  33518-4 0  9991,2 53851  53.2185 334.1667 0001010  98.6833 261.4273 15.08836558 45808,6917.891,95.438,540.455,539.057,0.0
53851.0,STARLINK-4755,PAYLOAD,2023-07-13 15:53:50,15.08837894,0.0001009,53.2175,328.5166,93.3173,266.7935,-2.8356e-05,-7.39e-06,0.0,0 STARLINK-4755,1 53851U 22114AK  23194.66238958 -.00000739  00000-0 -28356-4 0  9997,2 53851  53.2175 328.5166 0001009  93.3173 266.7935 15.08837894 45992,6917.887,95.438,540.45,539.054,0.0
53851.0,STARLINK-4755,PAYLOAD,2023-07-14 15:44:37,15.08842552,9.82e-05,53.2175,324.0589,91.0725,269.0379,0.00011812,1.593e-05,0.0,0 STARLINK-4755,1 53851U 22114AK  23195.65598523  .00001593  00000-0  11812-3 0  9999,2 53851  53.2175 324.0589 0000982  91.0725 269.0379 15.08842552 46142,6917.873,95.437,540.417,539.058,0.0
53851.0,STARLINK-4755,PAYLOAD,2023-07-15 18:46:11,15.08837111,0.0001111,53.2173,319.0021,87.9279,272.184,0.0001024,1.342e-05,0.0,0 STARLINK-4755,1 53851U 22114AK  23196.78207348  .00001342  00000-0  10240-3 0  9992,2 53851  53.2173 319.0021 0001111  87.9279 272.1840 15.08837111 46310,6917.889,95.438,540.523,538.986,0.0
53851.0,STARLINK-4755,PAYLOAD,2023-07-16 09:04:40,15.08833218,0.0001235,53.2174,316.3252,99.4122,260.7009,-6.8476e-07,-2.99e-06,0.0,0 STARLINK-4755,1 53851U 22114AK  23197.37824135 -.00000299  00000-0 -68476-6 0  9996,2 53851  53.2174 316.3252 0001235  99.4122 260.7009 15.08833218 46403,6917.901,95.438,540.62,538.912,0.0
53851.0,STARLINK-4755,PAYLOAD,2023-07-16 13:50:49,15.08840445,0.0001141,53.2179,315.4344,98.0549,262.0573,-4.8951e-05,-1.067e-05,0.0,0 STARLINK-4755,1 53851U 22114AK  23197.57695906 -.00001067  00000-0 -48951-4 0  9998,2 53851  53.2179 315.4344 0001141  98.0549 262.0573 15.08840445 46438,6917.879,95.438,540.533,538.955,0.0
53851.0,STARLINK-4755,PAYLOAD,2023-07-17 15:16:58,15.08847697,0.0001228,53.2177,310.676,82.2194,277.8938,0.00014721,2.056e-05,0.0,0 STARLINK-4755,1 53851U 22114AK  23198.63679130  .00002056  00000-0  14721-3 0  9991,2 53851  53.2177 310.6760 0001228  82.2194 277.8938 15.08847697 46594,6917.857,95.437,540.571,538.872,0.0
53851.0,STARLINK-4755,PAYLOAD,2023-07-18 07:10:50,15.08838492,0.0001246,53.2179,307.7024,89.1551,270.9584,0.00014172,1.968e-05,0.0,0 STARLINK-4755,1 53851U 22114AK  23199.29919733  .00001968  00000-0  14172-3 0  9991,2 53851  53.2179 307.7024 0001246  89.1551 270.9584 15.08838492 46694,6917.885,95.438,540.612,538.888,0.0
53851.0,STARLINK-4755,PAYLOAD,2023-07-18 13:32:22,15.0884603,0.0001221,53.2178,306.5135,91.0542,269.059,0.00012984,1.779e-05,0.0,0 STARLINK-4755,1 53851U 22114AK  23199.56415179  .00001779  00000-0  12984-3 0  9995,2 53851  53.2178 306.5135 0001221  91.0542 269.0590 15.08846030 46736,6917.862,95.437,540.572,538.882,0.0
53851.0,STARLINK-4755,PAYLOAD,2023-07-18 18:18:31,15.08854148,0.0001238,53.218,305.6209,90.326,269.7874,0.00018286,2.625e-05,0.0,0 STARLINK-4755,1 53851U 22114AK  23199.76286437  .00002625  00000-0  18286-3 0  9992,2 53851  53.2180 305.6209 0001238  90.3260 269.7874 15.08854148 46762,6917.837,95.437,540.559,538.846,0.0
53851.0,STARLINK-4755,PAYLOAD,2023-07-19 10:12:24,15.08829678,0.0001121,53.2171,302.6481,90.9726,269.1395,-4.7062e-05,-1.036e-05,0.0,0 STARLINK-4755,1 53851U 22114AK  23200.42528799 -.00001036  00000-0 -47062-4 0  9990,2 53851  53.2171 302.6481 0001121  90.9726 269.1395 15.08829678 46868,6917.912,95.438,540.552,539.001,0.0
53851.0,STARLINK-4755,PAYLOAD,2023-07-19 18:09:20,15.08838719,0.0001169,53.2175,301.16,100.1902,259.9222,-2.6109e-05,-7.03e-06,0.0,0 STARLINK-4755,1 53851U 22114AK  23200.75648244 -.00000703  00000-0 -26109-4 0  9993,2 53851  53.2175 301.1600 0001169 100.1902 259.9222 15.08838719 46919,6917.884,95.438,540.558,538.941,0.0
53851.0,STARLINK-4755,PAYLOAD,2023-07-20 18:00:05,15.08861883,0.0001763,53.2171,296.6994,121.7134,238.403,-3.8907e-05,-9.08e-06,0.0,0 STARLINK-4755,1 53851U 22114AK  23201.75006744 -.00000908  00000-0 -38907-4 0  9993,2 53851  53.2171 296.6994 0001763 121.7134 238.4030 15.08861883 47069,6917.814,95.436,540.898,538.459,0.0
53851.0,STARLINK-4755,PAYLOAD,2023-07-21 06:43:12,15.08839962,0.0001447,53.2168,294.3212,85.1634,274.9523,0.00027259,4.053e-05,0.0,0 STARLINK-4755,1 53851U 22114AK  23202.28000321  .00004053  00000-0  27259-3 0  9997,2 53851  53.2168 294.3212 0001447  85.1634 274.9523 15.08839962 47144,6917.881,95.438,540.747,538.744,0.0
53851.0,STARLINK-4755,PAYLOAD,2023-07-23 06:24:46,15.08838609,0.0001704,53.2173,285.3993,103.3354,256.7828,7.612e-05,9.24e-06,0.0,0 STARLINK-4755,1 53851U 22114AK  23204.26720231  .00000924  00000-0  76120-4 0  9991,2 53851  53.2173 285.3993 0001704 103.3354 256.7828 15.08838609 47989,6917.885,95.438,540.928,538.571,0.0
53851.0,STARLINK-4755,PAYLOAD,2023-07-25 10:52:30,15.08833237,0.000172,53.2173,275.5877,53.3392,306.7758,4.4714e-05,4.24e-06,0.0,0 STARLINK-4755,1 53851U 22114AK  23206.45313163  .00000424  00000-0  44714-4 0  9995,2 53851  53.2173 275.5877 0001720  53.3392 306.7758 15.08833237 48313,6917.901,95.438,540.956,538.576,0.0
53851.0,STARLINK-4755,PAYLOAD,2023-07-26 07:32:30,15.08839901,0.0001349,53.2143,271.7208,72.2937,287.8203,0.00019506,2.818e-05,0.0,0 STARLINK-4755,1 53851U 22114AK  23207.31424148  .00002818  00000-0  19506-3 0  9996,2 53851  53.2143 271.7208 0001349  72.2937 287.8203 15.08839901 48440,6917.881,95.438,540.679,538.812,0.0
53851.0,STARLINK-4755,PAYLOAD,2023-07-26 13:54:02,15.08845406,0.0001569,53.2145,270.533,55.3432,304.7708,0.00025033,3.699e-05,0.0,0 STARLINK-4755,1 53851U 22114AK  23207.57919848  .00003699  00000-0  25033-3 0  9990,2 53851  53.2145 270.5330 0001569  55.3432 304.7708 15.08845406 48481,6917.864,95.437,540.814,538.643,0.0
53851.0,STARLINK-4755,PAYLOAD,2023-07-27 10:34:03,15.08844259,0.0001263,53.2154,266.6671,71.0517,289.0611,0.00011909,1.608e-05,0.0,0 STARLINK-4755,1 53851U 22114AK  23208.44032306  .00001608  00000-0  11909-3 0  9997,2 53851  53.2154 266.6671 0001263  71.0517 289.0611 15.08844259 48073,6917.867,95.437,540.606,538.859,0.0
53851.0,STARLINK-4755,PAYLOAD,2023-07-28 07:14:05,15.08834263,0.0001227,53.2146,262.8002,83.7354,276.3778,-6.858e-05,-1.379e-05,0.0,0 STARLINK-4755,1 53851U 22114AK  23209.30144769 -.00001379  00000-0 -68580-4 0  9995,2 53851  53.2146 262.8002 0001227  83.7354 276.3778 15.08834263 48201,6917.898,95.438,540.612,538.914,0.0
53851.0,STARLINK-4755,PAYLOAD,2023-07-28 13:35:37,15.0883706,0.0001137,53.2162,261.6109,79.9974,280.1146,-4.0131e-05,-9.26e-06,0.0,0 STARLINK-4755,1 53851U 22114AK  23209.56640976 -.00000926  00000-0 -40131-4 0  9993,2 53851  53.2162 261.6109 0001137  79.9974 280.1146 15.08837060 48782,6917.889,95.438,540.541,538.968,0.0
